{"type":"FeatureCollection","features":[{"type":"Feature","id":"fill-rock-00001","properties":{"id":"fill-rock-00001","source_id":"axis_kyrtyk:1:42.468160:43.365977","elevation":3661,"name":"","category":"regular","ridge_id":"axis_kyrtyk","type":"rock","kind":"fill","icon_id":"mount-15","icon_number":15,"icon_scale":0.698,"min_zoom":7.4,"sort_key":-43.3659765},"geometry":{"type":"Point","coordinates":[42.46815987183419,43.36597652597194]}},{"type":"Feature","id":"fill-mount-00002","properties":{"id":"fill-mount-00002","source_id":"axis_tashorunbash:2:43.139720:43.569492","elevation":1826,"name":"","category":"regular","ridge_id":"axis_tashorunbash","type":"mount","kind":"fill","icon_id":"mount-16","icon_number":16,"icon_scale":0.5098,"min_zoom":8.3,"sort_key":-43.5694922},"geometry":{"type":"Point","coordinates":[43.13972018667503,43.569492222610876]}},{"type":"Feature","id":"fill-hill-00003","properties":{"id":"fill-hill-00003","source_id":"axis_tashorunbash:3:43.207922:43.585584","elevation":1710,"name":"","category":"regular","ridge_id":"axis_tashorunbash","type":"hill","kind":"fill","icon_id":"mount-30","icon_number":30,"icon_scale":0.4159,"min_zoom":8.3,"sort_key":-43.5855844},"geometry":{"type":"Point","coordinates":[43.207921865170704,43.58558437303414]}},{"type":"Feature","id":"fill-mount-00004","properties":{"id":"fill-mount-00004","source_id":"axis_upper_balkar_east:4:43.592698:43.149695","elevation":2549,"name":"","category":"regular","ridge_id":"axis_upper_balkar_east","type":"mount","kind":"fill","icon_id":"mount-27","icon_number":27,"icon_scale":0.5098,"min_zoom":8.3,"sort_key":-43.1496949},"geometry":{"type":"Point","coordinates":[43.59269795350825,43.14969486363144]}},{"type":"Feature","id":"fill-hill-00005","properties":{"id":"fill-hill-00005","source_id":"axis_upper_balkar_east:5:43.647268:43.245628","elevation":1130,"name":"","category":"regular","ridge_id":"axis_upper_balkar_east","type":"hill","kind":"fill","icon_id":"mount-4","icon_number":4,"icon_scale":0.4159,"min_zoom":8.3,"sort_key":-43.2456275},"geometry":{"type":"Point","coordinates":[43.64726846215016,43.24562752873962]}}]}