{"type":"FeatureCollection","features":[{"type":"Feature","properties":{"id":"peak-35ed047b3","elevation":5642,"name":"MIÑGI TAW","category":"main","ridge_id":"ridge-001","kind":"anchor","type":"peak","source_id":"peak_elbrus_west","icon_number":12,"icon_id":"mount-12","scale":1.386,"render_order":269759},"geometry":{"type":"Point","coordinates":[42.437843,43.35241]}},{"type":"Feature","properties":{"id":"peak-4e550efc9","elevation":5621,"name":"MIÑGI TAW — ÇIĞIŞ TÖPPESİ","category":"main","ridge_id":"ridge-001","kind":"anchor","type":"peak","source_id":"peak_elbrus_east","icon_number":5,"icon_id":"mount-5","scale":1.386,"render_order":270321},"geometry":{"type":"Point","coordinates":[42.453904,43.346794]}},{"type":"Feature","properties":{"id":"peak-d664c1c43","elevation":5085,"name":"CAÑGI TAW","category":"main","ridge_id":"ridge-002","kind":"anchor","type":"peak","source_id":"peak_dzhanga","icon_number":19,"icon_id":"mount-19","scale":1.369,"render_order":303168},"geometry":{"type":"Point","coordinates":[43.05748,43.018317]}},{"type":"Feature","properties":{"id":"peak-f6fb3718e","elevation":5068,"name":"ŞXARA","category":"main","ridge_id":"ridge-002","kind":"anchor","type":"peak","source_id":"peak_shkhara","icon_number":21,"icon_id":"mount-21","scale":1.366,"render_order":305068},"geometry":{"type":"Point","coordinates":[43.113133,42.999316]}},{"type":"Feature","properties":{"id":"peak-4fee3a87a","elevation":5204,"name":"TIX TAW","category":"main","ridge_id":"ridge-002","kind":"anchor","type":"peak","source_id":"peak_dykhtau","icon_number":27,"icon_id":"mount-27","scale":1.386,"render_order":299778},"geometry":{"type":"Point","coordinates":[43.133183,43.052216]}},{"type":"Feature","properties":{"id":"peak-a7def64d0","elevation":5100,"name":"PUŞKİN PİKİ","category":"main","ridge_id":"ridge-002","kind":"anchor","type":"peak","source_id":"peak_pushkin","icon_number":15,"icon_id":"mount-15","scale":1.371,"render_order":300132},"geometry":{"type":"Point","coordinates":[43.139691,43.048677]}},{"type":"Feature","properties":{"id":"peak-6468d5bbc","elevation":5025,"name":"MIJERGI","category":"main","ridge_id":"ridge-002","kind":"anchor","type":"peak","source_id":"peak_mizhirgi","icon_number":27,"icon_id":"mount-27","scale":1.359,"render_order":300508},"geometry":{"type":"Point","coordinates":[43.150292,43.044922]}},{"type":"Feature","properties":{"id":"peak-f62e64ce8","elevation":5151,"name":"QOŞTAN TAW","category":"main","ridge_id":"ridge-002","kind":"anchor","type":"peak","source_id":"peak_koshtantau","icon_number":16,"icon_id":"mount-16","scale":1.379,"render_order":299997},"geometry":{"type":"Point","coordinates":[43.213472,43.050028]}}]}