{"type":"FeatureCollection","features":[{"type":"Feature","properties":{"id":"mingi_tau","role":"unique_mountain","name":"Mingi Tau","elevation_m":5642,"longitude":42.436098,"latitude":43.353811,"morphology":null,"semantic_note":"Особая гора · точка сборки аланского народа","source":"project_unique_object"},"geometry":{"type":"Point","coordinates":[42.436098,43.353811]}},{"type":"Feature","properties":{"id":"mount-5000-0001","role":"five_thousander","name":"Коштантау","elevation_m":5105,"longitude":43.213466,"latitude":43.050027,"morphology":"rocky_peak","icon_id":null,"semantic_note":"","source":"active_mountain_point"},"geometry":{"type":"Point","coordinates":[43.213466,43.050027]}},{"type":"Feature","properties":{"id":"mount-5000-0002","role":"five_thousander","name":"Джанги-Тау Восточная","elevation_m":5034,"longitude":43.05748,"latitude":43.018313,"morphology":"rocky_ridge","icon_id":null,"semantic_note":"","source":"active_mountain_point"},"geometry":{"type":"Point","coordinates":[43.05748,43.018313]}},{"type":"Feature","properties":{"id":"mount-5000-0003","role":"five_thousander","name":"Дыхтау","elevation_m":5001,"longitude":43.133183,"latitude":43.052215,"morphology":"rocky_ridge","icon_id":null,"semantic_note":"","source":"active_mountain_point"},"geometry":{"type":"Point","coordinates":[43.133183,43.052215]}},{"type":"Feature","properties":{"id":"mount-5000-0004","role":"five_thousander","name":"Шхара","elevation_m":5022,"longitude":43.11313,"latitude":42.999312,"morphology":"rocky_peak","icon_id":null,"semantic_note":"","source":"active_mountain_point"},"geometry":{"type":"Point","coordinates":[43.11313,42.999312]}},{"type":"Feature","properties":{"id":"mount-main-0001","role":"main_mountain","name":"Восточный Мижирги","elevation_m":4757,"longitude":43.15419,"latitude":43.0445,"morphology":"rocky_peak","icon_id":null,"semantic_note":"","source":"active_mountain_point"},"geometry":{"type":"Point","coordinates":[43.15419,43.0445]}},{"type":"Feature","properties":{"id":"mount-main-0002","role":"main_mountain","name":"Башхаузбаши","elevation_m":4409,"longitude":43.145092,"latitude":43.033216,"morphology":"ridge","icon_id":null,"semantic_note":"","source":"active_mountain_point"},"geometry":{"type":"Point","coordinates":[43.145092,43.033216]}},{"type":"Feature","properties":{"id":"mount-main-0003","role":"main_mountain","name":"Восточная Дыхтау","elevation_m":4963,"longitude":43.135478,"latitude":43.049384,"morphology":"rocky_ridge","icon_id":null,"semantic_note":"","source":"active_mountain_point"},"geometry":{"type":"Point","coordinates":[43.135478,43.049384]}},{"type":"Feature","properties":{"id":"mount-main-0004","role":"main_mountain","name":"Мижирги","elevation_m":4853,"longitude":43.150295,"latitude":43.044923,"morphology":"rocky_peak","icon_id":null,"semantic_note":"","source":"active_mountain_point"},"geometry":{"type":"Point","coordinates":[43.150295,43.044923]}},{"type":"Feature","properties":{"id":"mount-main-0005","role":"main_mountain","name":"Тихонова","elevation_m":4663,"longitude":43.201042,"latitude":43.048875,"morphology":"rocky_peak","icon_id":null,"semantic_note":"","source":"active_mountain_point"},"geometry":{"type":"Point","coordinates":[43.201042,43.048875]}},{"type":"Feature","properties":{"id":"mount-main-0006","role":"main_mountain","name":"Птица","elevation_m":4371,"longitude":43.217597,"latitude":43.061528,"morphology":"rocky_peak","icon_id":null,"semantic_note":"","source":"active_mountain_point"},"geometry":{"type":"Point","coordinates":[43.217597,43.061528]}},{"type":"Feature","properties":{"id":"mount-main-0007","role":"main_mountain","name":"Пушкина","elevation_m":4864,"longitude":43.139695,"latitude":43.048679,"morphology":"rocky_ridge","icon_id":null,"semantic_note":"","source":"active_mountain_point"},"geometry":{"type":"Point","coordinates":[43.139695,43.048679]}},{"type":"Feature","properties":{"id":"mount-main-0008","role":"main_mountain","name":"Боровикова","elevation_m":4894,"longitude":43.148031,"latitude":43.045448,"morphology":"rocky_peak","icon_id":null,"semantic_note":"","source":"active_mountain_point"},"geometry":{"type":"Point","coordinates":[43.148031,43.045448]}},{"type":"Feature","properties":{"id":"mount-main-0009","role":"main_mountain","name":"Западная Джанги","elevation_m":4970,"longitude":43.051482,"latitude":43.019035,"morphology":"rocky_ridge","icon_id":null,"semantic_note":"","source":"active_mountain_point"},"geometry":{"type":"Point","coordinates":[43.051482,43.019035]}},{"type":"Feature","properties":{"id":"mount-main-0010","role":"main_mountain","name":"Ледовый Купол","elevation_m":4641,"longitude":43.217887,"latitude":43.055891,"morphology":"rocky_peak","icon_id":null,"semantic_note":"","source":"active_mountain_point"},"geometry":{"type":"Point","coordinates":[43.217887,43.055891]}},{"type":"Feature","properties":{"id":"mount-main-0011","role":"main_mountain","name":"Ушгули","elevation_m":4523,"longitude":43.120458,"latitude":42.989126,"morphology":"rocky_ridge","icon_id":null,"semantic_note":"","source":"active_mountain_point"},"geometry":{"type":"Point","coordinates":[43.120458,42.989126]}},{"type":"Feature","properties":{"id":"mount-main-0012","role":"main_mountain","name":"Гестола","elevation_m":4799,"longitude":43.025765,"latitude":43.048012,"morphology":"rocky_peak","icon_id":null,"semantic_note":"","source":"active_mountain_point"},"geometry":{"type":"Point","coordinates":[43.025765,43.048012]}},{"type":"Feature","properties":{"id":"mount-main-0013","role":"main_mountain","name":"Пик 4859","elevation_m":4766,"longitude":43.044444,"latitude":43.024808,"morphology":"rocky_ridge","icon_id":null,"semantic_note":"","source":"active_mountain_point"},"geometry":{"type":"Point","coordinates":[43.044444,43.024808]}},{"type":"Feature","properties":{"id":"mount-main-0014","role":"main_mountain","name":"Восточная Джанги","elevation_m":4943,"longitude":43.070773,"latitude":43.012799,"morphology":"rocky_ridge","icon_id":null,"semantic_note":"","source":"active_mountain_point"},"geometry":{"type":"Point","coordinates":[43.070773,43.012799]}},{"type":"Feature","properties":{"id":"mount-main-0015","role":"main_mountain","name":"Шхара Западная","elevation_m":4978,"longitude":43.089699,"latitude":42.998872,"morphology":"rocky_ridge","icon_id":null,"semantic_note":"","source":"active_mountain_point"},"geometry":{"type":"Point","coordinates":[43.089699,42.998872]}},{"type":"Feature","properties":{"id":"mount-main-0016","role":"main_mountain","name":"Шхара Восточная","elevation_m":4726,"longitude":43.126767,"latitude":43.003141,"morphology":"rocky_peak","icon_id":null,"semantic_note":"","source":"active_mountain_point"},"geometry":{"type":"Point","coordinates":[43.126767,43.003141]}},{"type":"Feature","properties":{"id":"mount-main-0017","role":"main_mountain","name":"Коштан Малый","elevation_m":4410,"longitude":43.22544,"latitude":43.055405,"morphology":"rocky_peak","icon_id":null,"semantic_note":"","source":"active_mountain_point"},"geometry":{"type":"Point","coordinates":[43.22544,43.055405]}},{"type":"Feature","properties":{"id":"mount-main-0018","role":"main_mountain","name":"Малый Домбай-Ульген","elevation_m":3558,"longitude":41.720935,"latitude":43.251361,"morphology":"rocky_ridge","icon_id":null,"semantic_note":"","source":"active_mountain_point"},"geometry":{"type":"Point","coordinates":[41.720935,43.251361]}},{"type":"Feature","properties":{"id":"mount-main-0019","role":"main_mountain","name":"Западная Домбай-Ульген","elevation_m":3636,"longitude":41.721815,"latitude":43.239841,"morphology":"rocky_peak","icon_id":null,"semantic_note":"","source":"active_mountain_point"},"geometry":{"type":"Point","coordinates":[41.721815,43.239841]}},{"type":"Feature","properties":{"id":"mount-main-0020","role":"main_mountain","name":"Южный Домбай-Ульген","elevation_m":3384,"longitude":41.713607,"latitude":43.225341,"morphology":"steep_mountain","icon_id":null,"semantic_note":"","source":"active_mountain_point"},"geometry":{"type":"Point","coordinates":[41.713607,43.225341]}},{"type":"Feature","properties":{"id":"mount-main-0021","role":"main_mountain","name":"Домбай-Ульген главная","elevation_m":3806,"longitude":41.725774,"latitude":43.243898,"morphology":"rocky_peak","icon_id":null,"semantic_note":"","source":"active_mountain_point"},"geometry":{"type":"Point","coordinates":[41.725774,43.243898]}}]}