{"type":"FeatureCollection","features":[{"type":"Feature","properties":{"system_id":"aksaut","name_ru":"Аксаут","tier":2,"width_class":"medium"},"geometry":{"type":"MultiLineString","coordinates":[[[41.44043,43.33691],[41.4533,43.33211],[41.45768,43.33467],[41.47262,43.34809],[41.47116,43.35664],[41.47476,43.36038]],[[41.47476,43.36038],[41.47922,43.36681],[41.47571,43.36974]],[[41.47476,43.36038],[41.47571,43.36974]],[[41.47519,43.3854],[41.47107,43.39077],[41.47433,43.40511],[41.4818,43.41658],[41.47837,43.42811],[41.48197,43.43111],[41.47459,43.44245],[41.48343,43.45734],[41.51278,43.48575],[41.53321,43.49316],[41.53338,43.49795],[41.53982,43.50206],[41.5418,43.50735],[41.56222,43.52204],[41.56094,43.52546],[41.56617,43.52652],[41.59046,43.55595],[41.60282,43.56223],[41.60917,43.58039]],[[41.60917,43.58039],[41.61655,43.60035],[41.62419,43.6093],[41.66187,43.61781],[41.67792,43.63216],[41.67706,43.64533],[41.66436,43.6585],[41.66316,43.67582],[41.66737,43.68985],[41.66642,43.71398],[41.67784,43.73247],[41.67887,43.74276],[41.68307,43.7494],[41.68161,43.75572],[41.68479,43.76409],[41.68204,43.77184],[41.6847,43.78696],[41.69226,43.78981],[41.68676,43.79371]],[[41.47528,43.38341],[41.47519,43.3854]],[[41.47571,43.36974],[41.47159,43.3781],[41.47528,43.38341]],[[41.47528,43.38341],[41.47571,43.38478],[41.47519,43.3854]],[[41.47751,43.37018],[41.47571,43.36974]],[[41.66264,43.79204],[41.68676,43.79377]],[[41.68676,43.79371],[41.68934,43.79334]],[[41.68676,43.79377],[41.69054,43.81075],[41.70084,43.82258],[41.70153,43.83453]],[[41.70153,43.83453],[41.7023,43.88472],[41.70745,43.89165],[41.70762,43.89727],[41.70024,43.9162]]]}},{"type":"Feature","properties":{"system_id":"arkhyz","name_ru":"Архыз","tier":2,"width_class":"medium"},"geometry":{"type":"MultiLineString","coordinates":[[[41.06295,43.61855],[41.06604,43.61657],[41.06312,43.61041],[41.06552,43.60892],[41.08286,43.60662],[41.10363,43.59916],[41.10157,43.58039]],[[41.10157,43.58039],[41.11093,43.5631],[41.13968,43.55844],[41.1559,43.55029],[41.17272,43.54762],[41.19324,43.53629],[41.21032,43.5338],[41.2292,43.53691],[41.24431,43.53517]]]}},{"type":"Feature","properties":{"system_id":"gondaray","name_ru":"Гондарай","tier":2,"width_class":"medium"},"geometry":{"type":"LineString","coordinates":[[41.96734,43.21725],[41.98897,43.23626],[41.99318,43.24727],[42.00957,43.26471],[42.01206,43.30095],[42.00322,43.31643]]}},{"type":"Feature","properties":{"system_id":"jamagat","name_ru":"Джамагат","tier":2,"width_class":"medium"},"geometry":{"type":"LineString","coordinates":[[41.82564,43.44987],[41.81954,43.45497],[41.79886,43.45616],[41.79646,43.46183],[41.78555,43.4675],[41.76358,43.47148],[41.75191,43.484]]}},{"type":"Feature","properties":{"system_id":"makhar","name_ru":"Махар","tier":2,"width_class":"medium"},"geometry":{"type":"MultiLineString","coordinates":[[[41.91155,43.24158],[41.92288,43.24614]],[[41.92288,43.24614],[41.9319,43.25614],[41.94202,43.28021],[41.95086,43.28908],[41.97885,43.30994],[42.00322,43.31643]],[[41.92589,43.23464],[41.92288,43.24614]]]}},{"type":"Feature","properties":{"system_id":"marukha","name_ru":"Маруха","tier":2,"width_class":"medium"},"geometry":{"type":"MultiLineString","coordinates":[[[41.38498,43.39189],[41.38095,43.41982],[41.38464,43.42313],[41.37786,43.43921],[41.38275,43.46083],[41.37992,43.46152],[41.38198,43.46575],[41.37958,43.46893],[41.3873,43.48051],[41.38352,43.48842],[41.39176,43.49179],[41.39897,43.50007],[41.42919,43.51084],[41.44644,43.5249],[41.4479,43.53262],[41.45708,43.54251],[41.45554,43.54905],[41.45219,43.54992],[41.45287,43.55974],[41.44592,43.56851],[41.44927,43.57137],[41.44893,43.58039]],[[41.44893,43.58039],[41.4479,43.58785],[41.45116,43.59544],[41.46086,43.60594],[41.4927,43.60066],[41.50566,43.6042]],[[41.38885,43.37118],[41.38138,43.37954],[41.38035,43.38677],[41.38498,43.39189]],[[41.40292,43.37411],[41.39048,43.37748],[41.38498,43.39189]],[[41.50566,43.6042],[41.50781,43.60464]],[[41.50566,43.6042],[41.50703,43.60401],[41.51381,43.60724],[41.51828,43.61116],[41.54008,43.61545],[41.55355,43.62235],[41.56291,43.63589],[41.56394,43.64384]],[[41.56343,43.64744],[41.56368,43.65483],[41.57252,43.67166],[41.58377,43.6801],[41.59235,43.69655],[41.59553,43.71411],[41.66239,43.79173],[41.66694,43.81168],[41.67561,43.8235],[41.67646,43.83453]],[[41.67646,43.83453],[41.67921,43.8461],[41.67535,43.85334],[41.67569,43.86312],[41.68041,43.86764],[41.68745,43.90167],[41.69329,43.91137],[41.70024,43.9162]],[[41.56394,43.64384],[41.56343,43.64744]],[[41.56737,43.64763],[41.56368,43.64725]],[[41.56394,43.64384],[41.56368,43.64725]]]}},{"type":"Feature","properties":{"system_id":"nalchik","name_ru":"Нальчик","tier":2,"width_class":"medium"},"geometry":{"type":"LineString","coordinates":[[43.36947,43.34122],[43.38415,43.3489],[43.39222,43.35614],[43.39419,43.36257],[43.42509,43.37324],[43.43393,43.38091],[43.43651,43.38971],[43.44295,43.39682],[43.44981,43.39619],[43.46106,43.40118],[43.48217,43.4235],[43.50938,43.43023],[43.53264,43.4293],[43.5571,43.43516],[43.56345,43.43254],[43.57384,43.44376],[43.58997,43.45061],[43.59538,43.46482],[43.60963,43.47584],[43.62456,43.47759],[43.64782,43.48618],[43.6716,43.50162],[43.67855,43.50137],[43.6873,43.50797],[43.70153,43.51134]]}},{"type":"Feature","properties":{"system_id":"psysh","name_ru":"Псыш","tier":2,"width_class":"medium"},"geometry":{"type":"LineString","coordinates":[[41.17959,43.39363],[41.1904,43.40018],[41.19736,43.41172],[41.19212,43.42918],[41.17547,43.44264],[41.16517,43.45958],[41.16311,43.46538],[41.16886,43.47173],[41.17023,43.48786],[41.18259,43.49384],[41.20062,43.50878],[41.20877,43.50797],[41.21967,43.51451],[41.22276,43.52136],[41.23538,43.52285],[41.23452,43.52839],[41.23838,43.52864],[41.23744,43.53106],[41.24216,43.53181],[41.24156,43.53411],[41.25649,43.53922],[41.26456,43.54755],[41.27186,43.54637],[41.27306,43.54911]]}},{"type":"Feature","properties":{"system_id":"uchkulan","name_ru":"Учкулан","tier":2,"width_class":"medium"},"geometry":{"type":"MultiLineString","coordinates":[[[42.00322,43.31643],[42.00099,43.32518]],[[42.00099,43.32518],[42.00485,43.33292],[41.99859,43.34603],[41.99979,43.35508],[41.99344,43.36244],[41.99558,43.37093],[41.99069,43.38428],[41.99103,43.397],[41.99987,43.4071],[42.00056,43.41347],[42.00874,43.41908]],[[42.00874,43.41908],[42.00983,43.42026]],[[42.00874,43.41908],[42.0118,43.42157]],[[42.0118,43.42157],[42.02605,43.42413],[42.03,43.42942]],[[42.0118,43.42157],[42.02408,43.42837]],[[42.02408,43.42837],[42.03,43.42942]],[[42.02408,43.42837],[42.02674,43.43117],[42.03472,43.43329],[42.03627,43.43765],[42.06622,43.44613]],[[42.03,43.42942],[42.02983,43.43198]],[[42.06622,43.44613],[42.08596,43.45217],[42.09618,43.46108]],[[42.07712,43.33236],[42.08639,43.33823],[42.09635,43.35395],[42.09669,43.40798],[42.09515,43.41453],[42.06794,43.44052],[42.06622,43.44613]]]}},{"type":"Feature","properties":{"system_id":"urvan","name_ru":"Урвань","tier":2,"width_class":"medium"},"geometry":{"type":"MultiLineString","coordinates":[[[43.65623,43.32842],[43.68361,43.32886],[43.70464,43.33997],[43.71795,43.35015],[43.71632,43.36001],[43.71941,43.36481],[43.72138,43.36612],[43.72438,43.36718],[43.7473,43.37941],[43.75709,43.38734]],[[43.72464,43.3675],[43.73589,43.37417],[43.74824,43.3927]],[[43.75709,43.38734],[43.75734,43.38858]],[[43.75709,43.38734],[43.754,43.38833],[43.75339,43.40268],[43.75648,43.40954],[43.77475,43.42386]]]}}]}