{"type":"FeatureCollection","features":[{"type":"Feature","properties":{"system_id":"alibek","name_ru":"Алибек","tier":3,"width_class":"minor"},"geometry":{"type":"LineString","coordinates":[[41.5478,43.2947],[41.56162,43.29726],[41.59999,43.28945],[41.62299,43.28877]]}},{"type":"Feature","properties":{"system_id":"baduk","name_ru":"Бадук","tier":3,"width_class":"minor"},"geometry":{"type":"LineString","coordinates":[[41.66144,43.37679],[41.67586,43.3816],[41.69372,43.37517]]}},{"type":"Feature","properties":{"system_id":"bashil-auzu-su","name_ru":"Башиль-Аузу-Су","tier":3,"width_class":"minor"},"geometry":{"type":"MultiLineString","coordinates":[[[42.90693,43.19229],[42.91191,43.18435]],[[42.91191,43.18434],[42.92367,43.18728],[42.93534,43.1956],[42.97525,43.2013],[42.99225,43.20755],[43.05757,43.21099]]]}},{"type":"Feature","properties":{"system_id":"dombay-ulgen","name_ru":"Домбай-Ульген","tier":3,"width_class":"minor"},"geometry":{"type":"LineString","coordinates":[[41.68796,43.26346],[41.67046,43.27296],[41.6332,43.28427],[41.62908,43.29033],[41.62522,43.2907]]}},{"type":"Feature","properties":{"system_id":"dykh-su","name_ru":"Дых-Су","tier":3,"width_class":"minor"},"geometry":{"type":"MultiLineString","coordinates":[[[43.23893,43.00396],[43.24356,43.00032]],[[43.23953,43.01011],[43.24528,43.00188],[43.24322,42.98707],[43.24665,42.98129]],[[43.23961,42.98098],[43.24665,42.98129]],[[43.24665,42.98129],[43.29969,42.97985],[43.30673,42.99071]],[[43.29351,42.99203],[43.30673,42.99071]],[[43.30673,42.99071],[43.30759,42.9941]]]}},{"type":"Feature","properties":{"system_id":"gara-auzu-su","name_ru":"Гара-Аузу-Су","tier":3,"width_class":"minor"},"geometry":{"type":"LineString","coordinates":[[43.018,43.15698],[43.02383,43.16969],[43.04083,43.1809],[43.04229,43.18766],[43.05387,43.19692],[43.05757,43.21099]]}},{"type":"Feature","properties":{"system_id":"kara-su","name_ru":"Кара-Су","tier":3,"width_class":"minor"},"geometry":{"type":"MultiLineString","coordinates":[[[43.39213,42.93921],[43.38269,42.94844],[43.36424,42.94826],[43.33454,42.95491],[43.33154,42.96754],[43.32055,42.98531],[43.30759,42.9941],[43.31995,43.02366],[43.33557,43.03997],[43.33626,43.04481],[43.35797,43.06086],[43.379,43.06889]],[[43.379,43.06889],[43.41488,43.08669],[43.43136,43.10462],[43.43471,43.11471],[43.46415,43.1325],[43.482,43.15392],[43.48191,43.1603],[43.48577,43.16581],[43.51642,43.18077],[43.51702,43.19767],[43.51436,43.19886],[43.53247,43.22144],[43.53169,43.22788],[43.53805,43.23864],[43.53696,43.25298]],[[43.43505,43.1844],[43.43256,43.19185],[43.45144,43.20949],[43.45119,43.21568],[43.46552,43.22019],[43.47539,43.2282],[43.49367,43.22995],[43.508,43.23532],[43.53015,43.24927],[43.53547,43.24927],[43.53696,43.25298]],[[43.53696,43.25298],[43.53985,43.26027],[43.56088,43.28258]]]}},{"type":"Feature","properties":{"system_id":"kizgych","name_ru":"Кизгыч","tier":3,"width_class":"minor"},"geometry":{"type":"MultiLineString","coordinates":[[[41.24027,43.3776],[41.24594,43.38178],[41.25967,43.38022]],[[41.24697,43.36363],[41.26353,43.37966]],[[41.25143,43.38734],[41.25967,43.38022]],[[41.25967,43.38022],[41.26353,43.37966]],[[41.26353,43.37966],[41.2819,43.38971],[41.29924,43.39114],[41.30696,43.40274],[41.32027,43.40386],[41.32422,43.40891],[41.3249,43.4139],[41.3213,43.41808],[41.32825,43.43453],[41.32756,43.44251]],[[41.32293,43.45192],[41.31237,43.47877],[41.31443,43.48556],[41.30602,43.49216],[41.30748,43.49714],[41.28379,43.51638],[41.28499,43.52273],[41.28259,43.52534],[41.28602,43.53019],[41.27907,43.53617],[41.27589,43.54121],[41.27829,43.54345],[41.27306,43.54911]],[[41.32756,43.44251],[41.32284,43.44594],[41.32293,43.45192]],[[41.32756,43.44251],[41.32293,43.45192]]]}},{"type":"Feature","properties":{"system_id":"sofia","name_ru":"София","tier":3,"width_class":"minor"},"geometry":{"type":"LineString","coordinates":[[41.28345,43.44245],[41.26937,43.45535],[41.2625,43.45647],[41.22774,43.50505],[41.22903,43.51121],[41.22019,43.51594]]}},{"type":"Feature","properties":{"system_id":"sukan-su","name_ru":"Сукан-Су","tier":3,"width_class":"minor"},"geometry":{"type":"MultiLineString","coordinates":[[[43.49032,43.00239],[43.4862,43.0145],[43.48921,43.02435],[43.48775,43.03565],[43.4965,43.04951],[43.49779,43.06193],[43.5026,43.06889]],[[43.5026,43.06889],[43.51092,43.07459],[43.51341,43.0835],[43.52303,43.09377],[43.54414,43.09885],[43.56328,43.11007],[43.56431,43.11727],[43.57264,43.12592],[43.61255,43.15905],[43.61924,43.17645],[43.66087,43.21106],[43.68688,43.25439],[43.68241,43.27733],[43.68576,43.28295],[43.68078,43.29095],[43.68138,43.29664],[43.70499,43.32518]],[[43.70499,43.32518],[43.70653,43.32967],[43.73056,43.34203],[43.7703,43.37274],[43.78035,43.3854],[43.78386,43.39544],[43.78386,43.42006]]]}}]}